CONNECTA IOT-11
1 64557U 25135AF  25258.55356286  .00005631  00000+0  27256-3 0  9994
2 64557  97.4516  11.8491 0000886 164.6476 195.4786 15.18968782 13145
